[{"OBJECT_NAME":"SITRO-AIS 8 (ANOKHIN)","OBJECT_ID":"2023-091AD","EPOCH":"2026-03-09T23:44:40.058592","MEAN_MOTION":15.29359179,"ECCENTRICITY":0.0012509,"INCLINATION":97.5169,"RA_OF_ASC_NODE":133.2823,"ARG_OF_PERICENTER":92.0171,"MEAN_ANOMALY":268.2501,"EPHEMERIS_TYPE":0,"CLASSIFICATION_TYPE":"U","NORAD_CAT_ID":57193,"ELEMENT_SET_NO":999,"REV_AT_EPOCH":14927,"BSTAR":0.00064982524,"MEAN_MOTION_DOT":0.00018494,"MEAN_MOTION_DDOT":0},{"OBJECT_NAME":"STARLINK-34829","OBJECT_ID":"2025-195N","EPOCH":"2026-03-09T22:25:06.825792","MEAN_MOTION":15.30194592,"ECCENTRICITY":0.00010356,"INCLINATION":53.1581,"RA_OF_ASC_NODE":256.8659,"ARG_OF_PERICENTER":78.8495,"MEAN_ANOMALY":281.2622,"EPHEMERIS_TYPE":0,"CLASSIFICATION_TYPE":"U","NORAD_CAT_ID":65470,"ELEMENT_SET_NO":999,"REV_AT_EPOCH":3003,"BSTAR":0.0011408299,"MEAN_MOTION_DOT":0.00033576,"MEAN_MOTION_DDOT":0}]
